CALSPHERE 1             
1 00900U 64063C   22300.51350078  .00000568  00000+0  59513-3 0  9998
2 00900  90.1838  43.3540 0025554 348.0284 129.9580 13.73941499888793
CALSPHERE 2             
1 00902U 64063E   22299.83571209  .00000064  00000+0  83445-4 0  9996
2 00902  90.1983  46.5094 0020101 123.4899   0.1471 13.52725378676534
LCS 1                   
1 01361U 65034C   22299.69265467 -.00000008  00000+0 -20959-2 0  9994
2 01361  32.1394  93.6794 0012081 341.9271  18.0796  9.89302185 78227
TEMPSAT 1               
1 01512U 65065E   22299.77689186  .00000062  00000+0  10474-3 0  9993
2 01512  89.9247 217.6052 0070908  23.1687  30.4049 13.33459114782870
CALSPHERE 4A            
1 01520U 65065H   22299.87587108  .00000091  00000+0  15923-3 0  9990
2 01520  89.9804 130.0398 0067585 252.6708 174.6487 13.35911744785200
OPS 5712 (P/L 160)      
1 02826U 67053A   22300.21469816  .00002133  00000+0  55148-3 0  9997
2 02826  69.9289 339.8532 0005416 212.6946 147.3854 14.51234601872345
OPS 5712 (P/L 153)      
1 02874U 67053H   22299.79587002 -.00000005  00000+0  34955-4 0  9999
2 02874  69.9729  83.8109 0005061 138.3727 221.7765 13.96423869821166
SURCAL 150B             
1 02909U 67053J   22299.80289685  .00003396  00000+0  64430-3 0  9991
2 02909  69.9465 323.7431 0005863 246.8256 113.2269 14.65088283882848
RIGIDSPHERE 2 (LCS 4)   
1 05398U 71067E   22300.47721145  .00000516  00000+0  17387-3 0  9994
2 05398  87.6247 346.5954 0061220 311.1112  48.4808 14.34364610683414
COSMOS 2493 (SKRL-756 1)
1 39490U 13078A   22300.44823044  .00001607  00000+0  16465-3 0  9998
2 39490  82.4149 107.6659 0017541  23.1970 337.0036 14.89778092479679
COSMOS 2494 (SKRL-756 2)
1 39491U 13078B   22300.56246878  .00001792  00000+0  17703-3 0  9997
2 39491  82.4151 101.0445 0021414 357.2536   2.8562 14.91254593480027
